0 FENGYUN 1C DEB
1 32325U 99025CXS 13280.97749297  .00002376  00000-0  97027-3 0  2313
2 32325 098.9665 352.7389 0075956 185.5019 174.5424 14.26753245326601
0 FENGYUN 1C DEB
1 32325U 99025CXS 13283.43200552  .00002417  00000-0  98931-3 0  2325
2 32325 098.9584 355.2381 0072020 181.0614 179.0826 14.26767195326955
0 FENGYUN 1C DEB
1 32325U 99025CXS 13287.42929428  .00002920  00000-0  11879-2 0  2333
2 32325 098.9623 359.3281 0074773 169.8716 190.6724 14.26800166327523
0 FENGYUN 1C DEB
1 32325U 99025CXS 13290.02392403  .00002944  00000-0  11963-2 0  2341
2 32325 098.9630 001.9854 0075461 162.5145 197.8840 14.26816227327891
0 FENGYUN 1C DEB
1 32325U 99025CXS 13290.44467701  .00003022  00000-0  12257-2 0  2357
2 32325 098.9650 002.4173 0077346 160.7285 199.7502 14.26821157327953
0 FENGYUN 1C DEB
1 32325U 99025CXS 13291.00567089  .00003114  00000-0  12582-2 0  2364
2 32325 098.9733 003.0170 0080999 157.7808 202.7785 14.26827363328037
0 FENGYUN 1C DEB
1 32325U 99025CXS 13294.44178179  .00003260  00000-0  13204-2 0  2378
2 32325 098.9616 006.4959 0076793 149.9044 210.8217 14.26854930328525
